{"type": "FeatureCollection", "features": [{"type": "Feature", "properties": {"norad_id": 28890, "name": "BEIJING 1", "group": "dmc", "lat": 0.22662587039462215, "lon": 129.04807140635916, "alt_km": 686.6961100036069, "timestamp": "2025-12-27T12:55:14.153685+00:00", "meta": {"OBJECT_NAME": "BEIJING 1", "OBJECT_ID": "2005-043A", "EPOCH": "2025-12-27T07:59:47.437152", "MEAN_MOTION": 14.63379351, "ECCENTRICITY": 0.00158626, "INCLINATION": 98.2663, "RA_OF_ASC_NODE": 128.8754, "ARG_OF_PERICENTER": 98.5455, "MEAN_ANOMALY": 261.7545, "EPHEMERIS_TYPE": 0, "CLASSIFICATION_TYPE": "U", "NORAD_CAT_ID": 28890, "ELEMENT_SET_NO": 999, "REV_AT_EPOCH": 7551, "BSTAR": 8.5179065e-05, "MEAN_MOTION_DOT": 3.92e-06, "MEAN_MOTION_DDOT": 0}, "tle": {"line1": "1 28890U 05043A   25361.33318793  .00000392  00000+0  85179-4 0  9990", "line2": "2 28890  98.2663 128.8754 0015862  98.5455 261.7545 14.63379351 75516"}}, "geometry": {"type": "Point", "coordinates": [129.04807140635916, 0.22662587039462215]}}, {"type": "Feature", "properties": {"norad_id": 33320, "name": "HUANJING 1A (HJ-1A)", "group": "dmc", "lat": 13.362263778134508, "lon": -12.611084732231587, "alt_km": 607.7231488008729, "timestamp": "2025-12-27T12:55:14.153710+00:00", "meta": {"OBJECT_NAME": "HUANJING 1A (HJ-1A)", "OBJECT_ID": "2008-041A", "EPOCH": "2025-12-27T06:23:05.294400", "MEAN_MOTION": 14.83441834, "ECCENTRICITY": 0.00189892, "INCLINATION": 97.6555, "RA_OF_ASC_NODE": 348.9588, "ARG_OF_PERICENTER": 347.9237, "MEAN_ANOMALY": 12.152, "EPHEMERIS_TYPE": 0, "CLASSIFICATION_TYPE": "U", "NORAD_CAT_ID": 33320, "ELEMENT_SET_NO": 999, "REV_AT_EPOCH": 93291, "BSTAR": 0.00030022759, "MEAN_MOTION_DOT": 2.422e-05, "MEAN_MOTION_DDOT": 0}, "tle": {"line1": "1 33320U 08041A   25361.26603350  .00002422  00000+0  30023-3 0  9996", "line2": "2 33320  97.6555 348.9588 0018989 347.9237  12.1520 14.83441834932910"}}, "geometry": {"type": "Point", "coordinates": [-12.611084732231587, 13.362263778134508]}}, {"type": "Feature", "properties": {"norad_id": 33321, "name": "HUANJING 1B (HJ-1B)", "group": "dmc", "lat": -23.833376655970252, "lon": 169.47791006354493, "alt_km": 652.098576141022, "timestamp": "2025-12-27T12:55:14.153724+00:00", "meta": {"OBJECT_NAME": "HUANJING 1B (HJ-1B)", "OBJECT_ID": "2008-041B", "EPOCH": "2025-12-27T07:08:46.819104", "MEAN_MOTION": 14.82862111, "ECCENTRICITY": 0.00376408, "INCLINATION": 97.6413, "RA_OF_ASC_NODE": 352.6479, "ARG_OF_PERICENTER": 29.5678, "MEAN_ANOMALY": 330.7654, "EPHEMERIS_TYPE": 0, "CLASSIFICATION_TYPE": "U", "NORAD_CAT_ID": 33321, "ELEMENT_SET_NO": 999, "REV_AT_EPOCH": 93293, "BSTAR": 0.00023336793, "MEAN_MOTION_DOT": 1.862e-05, "MEAN_MOTION_DDOT": 0}, "tle": {"line1": "1 33321U 08041B   25361.29776411  .00001862  00000+0  23337-3 0  9996", "line2": "2 33321  97.6413 352.6479 0037640  29.5678 330.7654 14.82862111932935"}}, "geometry": {"type": "Point", "coordinates": [169.47791006354493, -23.833376655970252]}}, {"type": "Feature", "properties": {"norad_id": 33446, "name": "YAOGAN-4", "group": "dmc", "lat": 69.83775105251036, "lon": 133.77363547441485, "alt_km": 622.6056345296656, "timestamp": "2025-12-27T12:55:14.153736+00:00", "meta": {"OBJECT_NAME": "YAOGAN-4", "OBJECT_ID": "2008-061A", "EPOCH": "2025-12-27T05:57:11.988288", "MEAN_MOTION": 14.82725658, "ECCENTRICITY": 0.00129687, "INCLINATION": 97.9199, "RA_OF_ASC_NODE": 291.2063, "ARG_OF_PERICENTER": 271.6936, "MEAN_ANOMALY": 88.2792, "EPHEMERIS_TYPE": 0, "CLASSIFICATION_TYPE": "U", "NORAD_CAT_ID": 33446, "ELEMENT_SET_NO": 999, "REV_AT_EPOCH": 92018, "BSTAR": 0.0002107495, "MEAN_MOTION_DOT": 1.65e-05, "MEAN_MOTION_DDOT": 0}, "tle": {"line1": "1 33446U 08061A   25361.24805542  .00001650  00000+0  21075-3 0  9991", "line2": "2 33446  97.9199 291.2063 0012968 271.6936  88.2792 14.82725658920183"}}, "geometry": {"type": "Point", "coordinates": [133.77363547441485, 69.83775105251036]}}, {"type": "Feature", "properties": {"norad_id": 35681, "name": "DEIMOS-1", "group": "dmc", "lat": -6.49450267355328, "lon": -19.43078262148963, "alt_km": 650.1254992398444, "timestamp": "2025-12-27T12:55:14.153748+00:00", "meta": {"OBJECT_NAME": "DEIMOS-1", "OBJECT_ID": "2009-041A", "EPOCH": "2025-12-27T07:11:37.592160", "MEAN_MOTION": 14.74975988, "ECCENTRICITY": 0.00023938, "INCLINATION": 97.7159, "RA_OF_ASC_NODE": 161.2261, "ARG_OF_PERICENTER": 57.5087, "MEAN_ANOMALY": 302.6354, "EPHEMERIS_TYPE": 0, "CLASSIFICATION_TYPE": "U", "NORAD_CAT_ID": 35681, "ELEMENT_SET_NO": 999, "REV_AT_EPOCH": 88154, "BSTAR": 0.00017626894, "MEAN_MOTION_DOT": 1.138e-05, "MEAN_MOTION_DDOT": 0}, "tle": {"line1": "1 35681U 09041A   25361.29974065  .00001138  00000+0  17627-3 0  9994", "line2": "2 35681  97.7159 161.2261 0002393  57.5087 302.6354 14.74975988881542"}}, "geometry": {"type": "Point", "coordinates": [-19.43078262148963, -6.49450267355328]}}, {"type": "Feature", "properties": {"norad_id": 35683, "name": "UK-DMC 2", "group": "dmc", "lat": -56.73436040528205, "lon": -56.12778161199451, "alt_km": 651.0819278311365, "timestamp": "2025-12-27T12:55:14.153759+00:00", "meta": {"OBJECT_NAME": "UK-DMC 2", "OBJECT_ID": "2009-041C", "EPOCH": "2025-12-27T06:57:55.756224", "MEAN_MOTION": 14.7565424, "ECCENTRICITY": 0.00015939, "INCLINATION": 97.8573, "RA_OF_ASC_NODE": 135.783, "ARG_OF_PERICENTER": 92.6689, "MEAN_ANOMALY": 267.4703, "EPHEMERIS_TYPE": 0, "CLASSIFICATION_TYPE": "U", "NORAD_CAT_ID": 35683, "ELEMENT_SET_NO": 999, "REV_AT_EPOCH": 88121, "BSTAR": 0.00022678175, "MEAN_MOTION_DOT": 1.5e-05, "MEAN_MOTION_DDOT": 0}, "tle": {"line1": "1 35683U 09041C   25361.29022866  .00001500  00000+0  22678-3 0  9994", "line2": "2 35683  97.8573 135.7830 0001593  92.6689 267.4703 14.75654240881218"}}, "geometry": {"type": "Point", "coordinates": [-56.12778161199451, -56.73436040528205]}}, {"type": "Feature", "properties": {"norad_id": 40715, "name": "DMC3-FM1", "group": "dmc", "lat": 82.15898198629567, "lon": 150.14862444975134, "alt_km": 607.4738239487215, "timestamp": "2025-12-27T12:55:14.153770+00:00", "meta": {"OBJECT_NAME": "DMC3-FM1", "OBJECT_ID": "2015-032A", "EPOCH": "2025-12-27T06:03:26.614368", "MEAN_MOTION": 14.8546452, "ECCENTRICITY": 0.00040846, "INCLINATION": 97.6678, "RA_OF_ASC_NODE": 227.9156, "ARG_OF_PERICENTER": 259.1112, "MEAN_ANOMALY": 100.9644, "EPHEMERIS_TYPE": 0, "CLASSIFICATION_TYPE": "U", "NORAD_CAT_ID": 40715, "ELEMENT_SET_NO": 999, "REV_AT_EPOCH": 56438, "BSTAR": 0.00011827869, "MEAN_MOTION_DOT": 9.69e-06, "MEAN_MOTION_DDOT": 0}, "tle": {"line1": "1 40715U 15032A   25361.25239137  .00000969  00000+0  11828-3 0  9993", "line2": "2 40715  97.6678 227.9156 0004084 259.1112 100.9644 14.85464520564380"}}, "geometry": {"type": "Point", "coordinates": [150.14862444975134, 82.15898198629567]}}, {"type": "Feature", "properties": {"norad_id": 40716, "name": "DMC3-FM2", "group": "dmc", "lat": -31.475281568731933, "lon": -125.61966083692414, "alt_km": 616.7221854801646, "timestamp": "2025-12-27T12:55:14.153782+00:00", "meta": {"OBJECT_NAME": "DMC3-FM2", "OBJECT_ID": "2015-032B", "EPOCH": "2025-12-27T06:35:48.543360", "MEAN_MOTION": 14.85469184, "ECCENTRICITY": 0.00045117, "INCLINATION": 97.6737, "RA_OF_ASC_NODE": 229.3916, "ARG_OF_PERICENTER": 267.0302, "MEAN_ANOMALY": 93.0397, "EPHEMERIS_TYPE": 0, "CLASSIFICATION_TYPE": "U", "NORAD_CAT_ID": 40716, "ELEMENT_SET_NO": 999, "REV_AT_EPOCH": 56438, "BSTAR": 0.00017551238, "MEAN_MOTION_DOT": 1.462e-05, "MEAN_MOTION_DDOT": 0}, "tle": {"line1": "1 40716U 15032B   25361.27486740  .00001462  00000+0  17551-3 0  9998", "line2": "2 40716  97.6737 229.3916 0004511 267.0302  93.0397 14.85469184564389"}}, "geometry": {"type": "Point", "coordinates": [-125.61966083692414, -31.475281568731933]}}, {"type": "Feature", "properties": {"norad_id": 40717, "name": "DMC3-FM3", "group": "dmc", "lat": -31.737675754812802, "lon": 46.50136016867316, "alt_km": 616.7441695466541, "timestamp": "2025-12-27T12:55:14.153792+00:00", "meta": {"OBJECT_NAME": "DMC3-FM3", "OBJECT_ID": "2015-032C", "EPOCH": "2025-12-27T07:07:08.278176", "MEAN_MOTION": 14.85450878, "ECCENTRICITY": 0.0003888, "INCLINATION": 97.6792, "RA_OF_ASC_NODE": 231.0554, "ARG_OF_PERICENTER": 268.5672, "MEAN_ANOMALY": 91.5098, "EPHEMERIS_TYPE": 0, "CLASSIFICATION_TYPE": "U", "NORAD_CAT_ID": 40717, "ELEMENT_SET_NO": 999, "REV_AT_EPOCH": 56439, "BSTAR": 5.3588433e-05, "MEAN_MOTION_DOT": 4.1e-06, "MEAN_MOTION_DDOT": 0}, "tle": {"line1": "1 40717U 15032C   25361.29662359  .00000410  00000+0  53588-4 0  9996", "line2": "2 40717  97.6792 231.0554 0003888 268.5672  91.5098 14.85450878564393"}}, "geometry": {"type": "Point", "coordinates": [46.50136016867316, -31.737675754812802]}}]}